[{"OBJECT_NAME":"STARLINK-5555","OBJECT_ID":"2023-013BH","EPOCH":"2026-03-09T00:22:07.061664","MEAN_MOTION":15.0252825,"ECCENTRICITY":0.00013572,"INCLINATION":43.0047,"RA_OF_ASC_NODE":316.4977,"ARG_OF_PERICENTER":272.1592,"MEAN_ANOMALY":87.9095,"EPHEMERIS_TYPE":0,"CLASSIFICATION_TYPE":"U","NORAD_CAT_ID":55386,"ELEMENT_SET_NO":999,"REV_AT_EPOCH":17146,"BSTAR":-5.3830101e-5,"MEAN_MOTION_DOT":-9.31e-6,"MEAN_MOTION_DDOT":0},{"OBJECT_NAME":"COSMOS 2251 DEB","OBJECT_ID":"1993-036SV","EPOCH":"2026-03-09T21:55:42.811680","MEAN_MOTION":15.15006345,"ECCENTRICITY":0.00579573,"INCLINATION":74.0283,"RA_OF_ASC_NODE":1.8812,"ARG_OF_PERICENTER":55.6817,"MEAN_ANOMALY":304.9843,"EPHEMERIS_TYPE":0,"CLASSIFICATION_TYPE":"U","NORAD_CAT_ID":34452,"ELEMENT_SET_NO":999,"REV_AT_EPOCH":91981,"BSTAR":0.0011020825,"MEAN_MOTION_DOT":0.00021495,"MEAN_MOTION_DDOT":0}]
